*******************************************************************************
Revised: Sep 12, 1996           Earth Barycenter                              3
 
 Dynamical point:
 ---------------
 The common point about which the Earth and Moon revolve (center of mass). This
 is approximately 4671 km from the center of the Earth, or about 3/4 of the way 
 to the surface. See 399 for Earth center, or 301 for Moon center ephemeris.

*******************************************************************************
 
 
*******************************************************************************
Ephemeris / WWW_USER Mon Jun 24 14:38:42 2013 Pasadena, USA      / Horizons    
*******************************************************************************
Target body name: Earth-Moon Barycenter (3)       {source: DE405}
Center body name: Solar System Barycenter (0)     {source: DE405}
Center-site name: BODY CENTER
*******************************************************************************
Start time      : A.D. 2019-Sep-14 00:00:00.0000 CT 
Stop  time      : A.D. 2019-Sep-17 00:00:00.0000 CT 
Step-size       : 60 minutes
*******************************************************************************
Center geodetic : 0.00000000,0.00000000,0.0000000 {E-lon(deg),Lat(deg),Alt(km)}
Center cylindric: 0.00000000,0.00000000,0.0000000 {E-lon(deg),Dxy(km),Dz(km)}
Center radii    : (undefined)                                                  
Output units    : KM-S                                                         
Output format   : 01
Reference frame : ICRF/J2000.0                                                 
Output type     : GEOMETRIC cartesian states
Coordinate systm: Ecliptic and Mean Equinox of Reference Epoch                 
*******************************************************************************
JDCT 
   X     Y     Z
*******************************************************************************
$$SOE
2458743.083333333 = A.D. 2019-Sep-16 14:00:00.0000 (CT)
   1.489061080404351E+08 -1.680370979263107E+07  2.303293347327608E+02
2458743.125000000 = A.D. 2019-Sep-16 15:00:00.0000 (CT)
   1.489170585253934E+08 -1.669764224033884E+07  2.268648473685880E+02
2458743.166666667 = A.D. 2019-Sep-16 16:00:00.0000 (CT)
   1.489279335215162E+08 -1.659156567730358E+07  2.234001429678619E+02
2458743.208333333 = A.D. 2019-Sep-16 17:00:00.0000 (CT)
   1.489387330207380E+08 -1.648548015684096E+07  2.199352239921695E+02
2458743.250000000 = A.D. 2019-Sep-16 18:00:00.0000 (CT)
   1.489494570150307E+08 -1.637938573227469E+07  2.164700929051610E+02
2458743.291666667 = A.D. 2019-Sep-16 19:00:00.0000 (CT)
   1.489601054964027E+08 -1.627328245693652E+07  2.130047521694619E+02
2458743.333333333 = A.D. 2019-Sep-16 20:00:00.0000 (CT)
   1.489706784569000E+08 -1.616717038416617E+07  2.095392042462181E+02
2458743.375000000 = A.D. 2019-Sep-16 21:00:00.0000 (CT)
   1.489811758886052E+08 -1.606104956731139E+07  2.060734516002699E+02
2458743.416666667 = A.D. 2019-Sep-16 22:00:00.0000 (CT)
   1.489915977836383E+08 -1.595492005972783E+07  2.026074966953688E+02
2458743.458333333 = A.D. 2019-Sep-16 23:00:00.0000 (CT)
   1.490019441341561E+08 -1.584878191477912E+07  1.991413419974147E+02
2458743.500000000 = A.D. 2019-Sep-17 00:00:00.0000 (CT)
   1.490122149323527E+08 -1.574263518583676E+07  1.956749899697816E+02
